{"type":"FeatureCollection","features":[{"type":"Feature","properties":{"id":"hnr-23","object_type":"heat_network","variant_id":"variant-1","start_node_id":106,"end_node_id":"hnr-1","flow_tph":407.88,"diameter":300,"length":25.0,"laying_method":"base","depth_start":null,"depth_end":null,"cost":3750550.00},"geometry":{"type":"LineString","coordinates":[[37.638461839014155,55.69763853262273],[37.638064203392126,55.69763412274861]]}},{"type":"Feature","properties":{"id":"hnr-24","object_type":"heat_network","variant_id":"variant-1","start_node_id":"hnr-1","end_node_id":"hnr-2","flow_tph":283.16,"diameter":300,"length":206.06601717798213,"laying_method":"base","depth_start":null,"depth_end":null,"cost":30914436.03},"geometry":{"type":"LineString","coordinates":[[37.638064203392126,55.69763412274861],[37.63765875609257,55.69785428276953],[37.63726111841305,55.69784987028399],[37.63685566438881,55.69807002761062],[37.6364580246519,55.69806561251363],[37.636052563902965,55.698285767145876],[37.63525728042522,55.698276930441665]]}},{"type":"Feature","properties":{"id":"hnr-25","object_type":"heat_network","variant_id":"variant-1","start_node_id":"hnr-2","end_node_id":"hnr-3","flow_tph":257.07,"diameter":250,"length":35.35533905932738,"laying_method":"base","depth_start":null,"depth_end":null,"cost":4784390.55},"geometry":{"type":"LineString","coordinates":[[37.63525728042522,55.698276930441665],[37.634851810783765,55.69849708105518]]}},{"type":"Feature","properties":{"id":"hnr-26","object_type":"heat_network","variant_id":"variant-1","start_node_id":"hnr-3","end_node_id":"hnr-4","flow_tph":105.92,"diameter":200,"length":120.71067811865476,"laying_method":"base","depth_start":null,"depth_end":null,"cost":14518476.81},"geometry":{"type":"LineString","coordinates":[[37.634851810783765,55.69849708105518],[37.63446199739012,55.69826808858837],[37.63447765775198,55.69781894684232],[37.6340878532505,55.697589953209324]]}},{"type":"Feature","properties":{"id":"hnr-27","object_type":"heat_network","variant_id":"variant-1","start_node_id":"hnr-4","end_node_id":13,"flow_tph":19.77,"diameter":100,"length":25.446279898641542,"laying_method":"base","depth_start":null,"depth_end":null,"cost":2283752.73},"geometry":{"type":"LineString","coordinates":[[37.6340878532505,55.697589953209324],[37.63384889424688,55.69764524662505],[37.6339010562985,55.697722607233096]]}},{"type":"Feature","properties":{"id":"hnr-28","object_type":"heat_network","variant_id":"variant-1","start_node_id":"hnr-3","end_node_id":"hnr-5","flow_tph":151.15,"diameter":200,"length":85.35533905932738,"laying_method":"base","depth_start":null,"depth_end":null,"cost":10266113.41},"geometry":{"type":"LineString","coordinates":[[37.634851810783765,55.69849708105518],[37.6344541670431,55.698492659447886],[37.63404869067695,55.69871280736683],[37.63365104487929,55.69870838314795]]}},{"type":"Feature","properties":{"id":"hnr-29","object_type":"heat_network","variant_id":"variant-1","start_node_id":"hnr-5","end_node_id":"hnr-6","flow_tph":111.15,"diameter":200,"length":50.0,"laying_method":"base","depth_start":null,"depth_end":null,"cost":6013750.00},"geometry":{"type":"LineString","coordinates":[[37.63365104487929,55.69870838314795],[37.63363537451752,55.6991575246739]]}},{"type":"Feature","properties":{"id":"hnr-30","object_type":"heat_network","variant_id":"variant-1","start_node_id":"hnr-6","end_node_id":"hnr-7","flow_tph":107.07,"diameter":200,"length":60.35533905932738,"laying_method":"base","depth_start":null,"depth_end":null,"cost":7259238.41},"geometry":{"type":"LineString","coordinates":[[37.63363537451752,55.6991575246739],[37.634025191803744,55.69938651975335],[37.63401735862448,55.69961109053086]]}},{"type":"Feature","properties":{"id":"hnr-31","object_type":"heat_network","variant_id":"variant-1","start_node_id":"hnr-7","end_node_id":"hnr-8","flow_tph":43.63,"diameter":150,"length":33.084353368301485,"laying_method":"base","depth_start":null,"depth_end":null,"cost":3490630.87},"geometry":{"type":"LineString","coordinates":[[37.63401735862448,55.69961109053086],[37.63449779798155,55.69973250439764]]}},{"type":"Feature","properties":{"id":"hnr-32","object_type":"heat_network","variant_id":"variant-1","start_node_id":"hnr-8","end_node_id":2,"flow_tph":18.76,"diameter":100,"length":14.590865987344527,"laying_method":"base","depth_start":null,"depth_end":null,"cost":1309501.04},"geometry":{"type":"LineString","coordinates":[[37.63449779798155,55.69973250439764],[37.6345829261805,55.6998544638392]]}},{"type":"Feature","properties":{"id":"hnr-33","object_type":"heat_network","variant_id":"variant-1","start_node_id":"hnr-1","end_node_id":"hnr-9","flow_tph":124.72,"diameter":200,"length":35.20265066629861,"laying_method":"base","depth_start":null,"depth_end":null,"cost":4233998.81},"geometry":{"type":"LineString","coordinates":[[37.638064203392126,55.69763412274861],[37.63805639388255,55.69785869396781],[37.63821833089452,55.69786490241139]]}},{"type":"Feature","properties":{"id":"hnr-34","object_type":"heat_network","variant_id":"variant-1","start_node_id":"hnr-9","end_node_id":7,"flow_tph":27.82,"diameter":125,"length":10.943667369263446,"laying_method":"base","depth_start":null,"depth_end":null,"cost":1064545.24},"geometry":{"type":"LineString","coordinates":[[37.63821833089452,55.69786490241139],[37.6382803042186,55.69795678628921]]}},{"type":"Feature","properties":{"id":"hnr-35","object_type":"heat_network","variant_id":"variant-1","start_node_id":"hnr-4","end_node_id":9,"flow_tph":34.53,"diameter":125,"length":50.33465161749716,"laying_method":"base","depth_start":null,"depth_end":null,"cost":4896303.24},"geometry":{"type":"LineString","coordinates":[[37.6340878532505,55.697589953209324],[37.63449331767097,55.69736980506029],[37.63452018779089,55.69736246726497],[37.6344462678961,55.6972523917077]]}},{"type":"Feature","properties":{"id":"hnr-36","object_type":"heat_network","variant_id":"variant-1","start_node_id":"hnr-7","end_node_id":"hnr-10","flow_tph":63.44,"diameter":150,"length":61.617596286598875,"laying_method":"base","depth_start":null,"depth_end":null,"cost":6501087.73},"geometry":{"type":"LineString","coordinates":[[37.63401735862448,55.69961109053086],[37.633619703712576,55.699606666163845],[37.63310553176556,55.699761330093125]]}},{"type":"Feature","properties":{"id":"hnr-37","object_type":"heat_network","variant_id":"variant-1","start_node_id":"hnr-10","end_node_id":3,"flow_tph":29.42,"diameter":125,"length":59.52522141849181,"laying_method":"base","depth_start":null,"depth_end":null,"cost":5790315.91},"geometry":{"type":"LineString","coordinates":[[37.63310553176556,55.699761330093125],[37.6328466024688,55.700275760196696]]}},{"type":"Feature","properties":{"id":"hnr-38","object_type":"heat_network","variant_id":"variant-1","start_node_id":"hnr-4","end_node_id":"hnr-11","flow_tph":51.62,"diameter":150,"length":20.01159033058606,"laying_method":"base","depth_start":null,"depth_end":null,"cost":2111362.86},"geometry":{"type":"LineString","coordinates":[[37.6340878532505,55.697589953209324],[37.6339015593965,55.697444156292725]]}},{"type":"Feature","properties":{"id":"hnr-39","object_type":"heat_network","variant_id":"variant-1","start_node_id":"hnr-11","end_node_id":14,"flow_tph":19.73,"diameter":100,"length":9.88412959577382,"laying_method":"base","depth_start":null,"depth_end":null,"cost":887080.86},"geometry":{"type":"LineString","coordinates":[[37.6339015593965,55.697444156292725],[37.6337524411436,55.6974723292097]]}},{"type":"Feature","properties":{"id":"hnr-40","object_type":"heat_network","variant_id":"variant-1","start_node_id":"hnr-10","end_node_id":"hnr-12","flow_tph":34.02,"diameter":125,"length":35.35533905932738,"laying_method":"base","depth_start":null,"depth_end":null,"cost":3439190.61},"geometry":{"type":"LineString","coordinates":[[37.63310553176556,55.699761330093125],[37.63270003463875,55.699981473406545]]}},{"type":"Feature","properties":{"id":"hnr-41","object_type":"heat_network","variant_id":"variant-1","start_node_id":"hnr-12","end_node_id":8,"flow_tph":18.03,"diameter":100,"length":50.700172315404544,"laying_method":"base","depth_start":null,"depth_end":null,"cost":4550239.06},"geometry":{"type":"LineString","coordinates":[[37.63270003463875,55.699981473406545],[37.632399976509774,55.700271886168004],[37.632202633606305,55.70031441743034]]}},{"type":"Feature","properties":{"id":"hnr-42","object_type":"heat_network","variant_id":"variant-1","start_node_id":"hnr-8","end_node_id":1,"flow_tph":24.87,"diameter":125,"length":33.287953585686815,"laying_method":"base","depth_start":null,"depth_end":null,"cost":3238085.69},"geometry":{"type":"LineString","coordinates":[[37.63449779798155,55.69973250439764],[37.634591449059336,55.699615069506706],[37.6344054041544,55.69948106445311]]}},{"type":"Feature","properties":{"id":"hnr-43","object_type":"heat_network","variant_id":"variant-1","start_node_id":"hnr-11","end_node_id":15,"flow_tph":31.89,"diameter":125,"length":222.2211648616465,"laying_method":"base","depth_start":null,"depth_end":null,"cost":21616563.81},"geometry":{"type":"LineString","coordinates":[[37.6339015593965,55.697444156292725],[37.633917225701175,55.696995014590854],[37.63313764411013,55.696537022603415],[37.63274002054999,55.696532595547865],[37.63233455511246,55.69675273793038],[37.63198983061061,55.69697913745133],[37.63203443949898,55.69704568983144]]}},{"type":"Feature","properties":{"id":"hnr-44","object_type":"heat_network","variant_id":"variant-1","start_node_id":"hnr-12","end_node_id":6,"flow_tph":15.99,"diameter":100,"length":61.1173281098637,"laying_method":"base","depth_start":null,"depth_end":null,"cost":5485157.96},"geometry":{"type":"LineString","coordinates":[[37.63270003463875,55.699981473406545],[37.63229453295461,55.70020161534949],[37.63205963698672,55.700117880411796],[37.632012226474316,55.70004826125506]]}},{"type":"Feature","properties":{"id":"hnr-45","object_type":"heat_network","variant_id":"variant-1","start_node_id":"hnr-2","end_node_id":5,"flow_tph":26.09,"diameter":125,"length":39.559208157453384,"laying_method":"base","depth_start":null,"depth_end":null,"cost":3848121.97},"geometry":{"type":"LineString","coordinates":[[37.63525728042522,55.698276930441665],[37.63524894324781,55.69836589039511],[37.6354170560464,55.6986147317495]]}},{"type":"Feature","properties":{"id":"hnr-46","object_type":"heat_network","variant_id":"variant-1","start_node_id":"hnr-5","end_node_id":12,"flow_tph":40.0,"diameter":125,"length":34.548045444787135,"laying_method":"base","depth_start":null,"depth_end":null,"cost":3360661.12},"geometry":{"type":"LineString","coordinates":[[37.63365104487929,55.69870838314795],[37.63324343577562,55.698624470095936],[37.63313932211122,55.69865306825248]]}},{"type":"Feature","properties":{"id":"hnr-47","object_type":"heat_network","variant_id":"variant-1","start_node_id":"hnr-9","end_node_id":"hnr-15","flow_tph":96.90,"diameter":200,"length":23.34838940882927,"laying_method":"base","depth_start":null,"depth_end":null,"cost":2808227.54},"geometry":{"type":"LineString","coordinates":[[37.63821833089452,55.69786490241139],[37.63848608364689,55.6977195093787]]}},{"type":"Feature","properties":{"id":"hnr-48","object_type":"heat_network","variant_id":"variant-1","start_node_id":"hnr-15","end_node_id":"hnr-16","flow_tph":96.90,"diameter":200,"length":3.9999999999903855,"laying_method":"special","depth_start":null,"depth_end":null,"cost":505155.00},"geometry":{"type":"LineString","coordinates":[[37.63848608364689,55.6977195093787],[37.638531954320676,55.6976946008713]]}},{"type":"Feature","properties":{"id":"hnr-49","object_type":"heat_network","variant_id":"variant-1","start_node_id":"hnr-16","end_node_id":"hnr-13","flow_tph":96.90,"diameter":200,"length":8.00694965050772,"laying_method":"base","depth_start":null,"depth_end":null,"cost":963035.87},"geometry":{"type":"LineString","coordinates":[[37.638531954320676,55.6976946008713],[37.6386237751893,55.69764474052746]]}},{"type":"Feature","properties":{"id":"hnr-50","object_type":"heat_network","variant_id":"variant-1","start_node_id":"hnr-13","end_node_id":16,"flow_tph":76.27,"diameter":200,"length":245.74820070161417,"laying_method":"base","depth_start":null,"depth_end":null,"cost":29557364.84},"geometry":{"type":"LineString","coordinates":[[37.6386237751893,55.69764474052746],[37.639816682986805,55.69765796085437],[37.64022211622076,55.69743779362802],[37.64061195540328,55.697666767969444],[37.64060416049057,55.6978913394248],[37.64099400639803,55.69812031257152],[37.640937735884556,55.69837011113261],[37.64076446632709,55.6984073918225]]}},{"type":"Feature","properties":{"id":"hnr-51","object_type":"heat_network","variant_id":"variant-1","start_node_id":"hnr-6","end_node_id":11,"flow_tph":4.08,"diameter":65,"length":233.38978444786582,"laying_method":"base","depth_start":null,"depth_end":null,"cost":18351672.14},"geometry":{"type":"LineString","coordinates":[[37.63363537451752,55.6991575246739],[37.63244242411825,55.69914424407125],[37.632036929745546,55.69936438523033],[37.63242673964178,55.69959338533888],[37.6324188972372,55.6998179559592],[37.63281655409525,55.69982238422524],[37.63303485709262,55.699631166571415],[37.6332044989075,55.699575075115]]}},{"type":"Feature","properties":{"id":"hnr-52","object_type":"heat_network","variant_id":"variant-1","start_node_id":"hnr-13","end_node_id":17,"flow_tph":20.63,"diameter":100,"length":148.07450347027438,"laying_method":"base","depth_start":null,"depth_end":null,"cost":13289390.54},"geometry":{"type":"LineString","coordinates":[[37.6386237751893,55.69764474052746],[37.63864719344091,55.69697102666052],[37.639052626013004,55.69675086326887],[37.639475489429906,55.696758353653834],[37.639538146115,55.6968518286392]]}},{"type":"Feature","properties":{"id":"hnr-53","object_type":"heat_network","variant_id":"variant-1","start_node_id":110,"end_node_id":"hnr-17","flow_tph":47.7,"diameter":150,"length":188.19540189523366,"laying_method":"base","depth_start":null,"depth_end":null,"cost":19855932.27},"geometry":{"type":"LineString","coordinates":[[37.639132446457374,55.69802165934685],[37.63910903563085,55.69869537323342],[37.63949888064752,55.69892435109388],[37.639491078986204,55.6991489223993],[37.63988093072825,55.69937789906511],[37.63987547578345,55.69953496176901]]}},{"type":"Feature","properties":{"id":"hnr-54","object_type":"heat_network","variant_id":"variant-1","start_node_id":"hnr-17","end_node_id":"hnr-18","flow_tph":47.7,"diameter":150,"length":4.0,"laying_method":"special","depth_start":null,"depth_end":null,"cost":443129.40},"geometry":{"type":"LineString","coordinates":[[37.63987547578345,55.69953496176901],[37.63987422784199,55.69957089318051]]}},{"type":"Feature","properties":{"id":"hnr-55","object_type":"heat_network","variant_id":"variant-1","start_node_id":"hnr-18","end_node_id":"hnr-19","flow_tph":47.7,"diameter":150,"length":6.715720864754429,"laying_method":"base","depth_start":null,"depth_end":null,"cost":708555.56},"geometry":{"type":"LineString","coordinates":[[37.63987422784199,55.69957089318051],[37.63987313112492,55.699602470389436],[37.639836428363864,55.699622400354706]]}},{"type":"Feature","properties":{"id":"hnr-56","object_type":"heat_network","variant_id":"variant-1","start_node_id":"hnr-19","end_node_id":"hnr-20","flow_tph":47.7,"diameter":150,"length":3.9999999999903855,"laying_method":"special","depth_start":null,"depth_end":null,"cost":443129.40},"geometry":{"type":"LineString","coordinates":[[37.639836428363864,55.699622400354706],[37.63979055623399,55.699647309334416]]}},{"type":"Feature","properties":{"id":"hnr-57","object_type":"heat_network","variant_id":"variant-1","start_node_id":"hnr-20","end_node_id":4,"flow_tph":47.7,"diameter":150,"length":243.9123868412367,"laying_method":"base","depth_start":null,"depth_end":null,"cost":25734464.20},"geometry":{"type":"LineString","coordinates":[[37.63979055623399,55.699647309334416],[37.63946767334032,55.69982263626163],[37.63827469978946,55.69980941220817],[37.63786923094261,55.70002957273749],[37.6374715711449,55.70002516082072],[37.63706609557242,55.700245318655554],[37.63656027389118,55.700215734419366],[37.6363818514204,55.700155199014695]]}},{"type":"Feature","properties":{"id":"hnr-58","object_type":"heat_network","variant_id":"variant-1","start_node_id":"hnr-14","end_node_id":"hnr-21","flow_tph":33.14,"diameter":125,"length":46.26313012349126,"laying_method":"base","depth_start":null,"depth_end":null,"cost":4500245.98},"geometry":{"type":"LineString","coordinates":[[37.638110674821775,55.69716733424431],[37.638500498884746,55.697396315221425],[37.63837541272303,55.69746423935459]]}},{"type":"Feature","properties":{"id":"hnr-59","object_type":"heat_network","variant_id":"variant-1","start_node_id":"hnr-21","end_node_id":"hnr-22","flow_tph":33.14,"diameter":125,"length":4.0000000000315445,"laying_method":"special","depth_start":null,"depth_end":null,"cost":408555.00},"geometry":{"type":"LineString","coordinates":[[37.63837541272303,55.69746423935459],[37.638329542222806,55.69748914780531]]}},{"type":"Feature","properties":{"id":"hnr-60","object_type":"heat_network","variant_id":"variant-1","start_node_id":"hnr-22","end_node_id":10,"flow_tph":33.14,"diameter":125,"length":344.90627645679024,"laying_method":"base","depth_start":null,"depth_end":null,"cost":33550758.04},"geometry":{"type":"LineString","coordinates":[[37.638329542222806,55.69748914780531],[37.63768960955449,55.69783663684201],[37.637291972049006,55.69783222445729],[37.636512334140974,55.69737425366714],[37.63652015236087,55.69714968257417],[37.636130342409565,55.69692069537359],[37.636138162686606,55.696696124299585],[37.63653578846905,55.696700540361235],[37.63652797047023,55.6969251114722],[37.63612252202194,55.697145266438596],[37.63600615333673,55.69717401824182],[37.6360932402107,55.697296569490895]]}},{"type":"Feature","properties":{"id":"hnr-1","object_type":"heat_chamber","variant_id":"variant-1","diameter":300,"cost":5000000.00},"geometry":{"type":"Point","coordinates":[37.638064203392126,55.69763412274861]}},{"type":"Feature","properties":{"id":"hnr-2","object_type":"heat_chamber","variant_id":"variant-1","diameter":300,"cost":5000000.00},"geometry":{"type":"Point","coordinates":[37.63525728042522,55.698276930441665]}},{"type":"Feature","properties":{"id":"hnr-3","object_type":"heat_chamber","variant_id":"variant-1","diameter":250,"cost":5000000.00},"geometry":{"type":"Point","coordinates":[37.634851810783765,55.69849708105518]}},{"type":"Feature","properties":{"id":"hnr-4","object_type":"heat_chamber","variant_id":"variant-1","diameter":200,"cost":3000000.00},"geometry":{"type":"Point","coordinates":[37.6340878532505,55.697589953209324]}},{"type":"Feature","properties":{"id":"hnr-5","object_type":"heat_chamber","variant_id":"variant-1","diameter":200,"cost":3000000.00},"geometry":{"type":"Point","coordinates":[37.63365104487929,55.69870838314795]}},{"type":"Feature","properties":{"id":"hnr-6","object_type":"heat_chamber","variant_id":"variant-1","diameter":200,"cost":3000000.00},"geometry":{"type":"Point","coordinates":[37.63363537451752,55.6991575246739]}},{"type":"Feature","properties":{"id":"hnr-7","object_type":"heat_chamber","variant_id":"variant-1","diameter":200,"cost":3000000.00},"geometry":{"type":"Point","coordinates":[37.63401735862448,55.69961109053086]}},{"type":"Feature","properties":{"id":"hnr-8","object_type":"heat_chamber","variant_id":"variant-1","diameter":150,"cost":3000000.00},"geometry":{"type":"Point","coordinates":[37.63449779798155,55.69973250439764]}},{"type":"Feature","properties":{"id":"hnr-9","object_type":"heat_chamber","variant_id":"variant-1","diameter":200,"cost":3000000.00},"geometry":{"type":"Point","coordinates":[37.63821833089452,55.69786490241139]}},{"type":"Feature","properties":{"id":"hnr-10","object_type":"heat_chamber","variant_id":"variant-1","diameter":150,"cost":3000000.00},"geometry":{"type":"Point","coordinates":[37.63310553176556,55.699761330093125]}},{"type":"Feature","properties":{"id":"hnr-11","object_type":"heat_chamber","variant_id":"variant-1","diameter":150,"cost":3000000.00},"geometry":{"type":"Point","coordinates":[37.6339015593965,55.697444156292725]}},{"type":"Feature","properties":{"id":"hnr-12","object_type":"heat_chamber","variant_id":"variant-1","diameter":125,"cost":3000000.00},"geometry":{"type":"Point","coordinates":[37.63270003463875,55.699981473406545]}},{"type":"Feature","properties":{"id":"hnr-13","object_type":"heat_chamber","variant_id":"variant-1","diameter":200,"cost":3000000.00},"geometry":{"type":"Point","coordinates":[37.6386237751893,55.69764474052746]}},{"type":"Feature","properties":{"id":"hnr-14","object_type":"heat_chamber","variant_id":"variant-1","diameter":400,"cost":5000000.00},"geometry":{"type":"Point","coordinates":[37.638110674821775,55.69716733424431]}},{"type":"Feature","properties":{"id":"hnr-15","object_type":"technical_node","variant_id":"variant-1"},"geometry":{"type":"Point","coordinates":[37.63848608364689,55.6977195093787]}},{"type":"Feature","properties":{"id":"hnr-16","object_type":"technical_node","variant_id":"variant-1"},"geometry":{"type":"Point","coordinates":[37.638531954320676,55.6976946008713]}},{"type":"Feature","properties":{"id":"hnr-17","object_type":"technical_node","variant_id":"variant-1"},"geometry":{"type":"Point","coordinates":[37.63987547578345,55.69953496176901]}},{"type":"Feature","properties":{"id":"hnr-18","object_type":"technical_node","variant_id":"variant-1"},"geometry":{"type":"Point","coordinates":[37.63987422784199,55.69957089318051]}},{"type":"Feature","properties":{"id":"hnr-19","object_type":"technical_node","variant_id":"variant-1"},"geometry":{"type":"Point","coordinates":[37.639836428363864,55.699622400354706]}},{"type":"Feature","properties":{"id":"hnr-20","object_type":"technical_node","variant_id":"variant-1"},"geometry":{"type":"Point","coordinates":[37.63979055623399,55.699647309334416]}},{"type":"Feature","properties":{"id":"hnr-21","object_type":"technical_node","variant_id":"variant-1"},"geometry":{"type":"Point","coordinates":[37.63837541272303,55.69746423935459]}},{"type":"Feature","properties":{"id":"hnr-22","object_type":"technical_node","variant_id":"variant-1"},"geometry":{"type":"Point","coordinates":[37.638329542222806,55.69748914780531]}},{"type":"Feature","properties":{"id":"hnr-61","object_type":"variant_summary","variant_id":"variant-1","rank":1,"construction_cost":366733170.50,"chamber_construction_cost":50000000.00,"existing_chamber_tie_in_count":2,"existing_chamber_tie_in_cost":10000000.00,"unconnected_penalty":0.00,"calculated_cost":366733170.50,"new_network_length":2884.833674408196,"score":18.9230297972,"unconnected_oks_ids":[]},"geometry":null},{"type":"Feature","properties":{"id":"hnr-82","object_type":"heat_network","variant_id":"variant-2","start_node_id":106,"end_node_id":"hnr-62","flow_tph":253.74,"diameter":250,"length":231.06601717798213,"laying_method":"base","depth_start":null,"depth_end":null,"cost":31268546.64},"geometry":{"type":"LineString","coordinates":[[37.638461839014155,55.69763853262273],[37.63805639388255,55.69785869396781],[37.63765875609257,55.69785428276953],[37.63725330423624,55.69807444142035],[37.6364580246519,55.69806561251363],[37.636052563902965,55.698285767145876],[37.63525728042522,55.698276930441665]]}},{"type":"Feature","properties":{"id":"hnr-83","object_type":"heat_network","variant_id":"variant-2","start_node_id":"hnr-62","end_node_id":"hnr-63","flow_tph":227.65,"diameter":250,"length":35.35533905932738,"laying_method":"base","depth_start":null,"depth_end":null,"cost":4784390.55},"geometry":{"type":"LineString","coordinates":[[37.63525728042522,55.698276930441665],[37.634851810783765,55.69849708105518]]}},{"type":"Feature","properties":{"id":"hnr-84","object_type":"heat_network","variant_id":"variant-2","start_node_id":"hnr-63","end_node_id":"hnr-64","flow_tph":153.62,"diameter":250,"length":85.35533905932738,"laying_method":"base","depth_start":null,"depth_end":null,"cost":11550540.55},"geometry":{"type":"LineString","coordinates":[[37.634851810783765,55.69849708105518],[37.6344541670431,55.698492659447886],[37.63404869067695,55.69871280736683],[37.63365104487929,55.69870838314795]]}},{"type":"Feature","properties":{"id":"hnr-85","object_type":"heat_network","variant_id":"variant-2","start_node_id":"hnr-64","end_node_id":"hnr-65","flow_tph":81.73,"diameter":200,"length":100.0,"laying_method":"base","depth_start":null,"depth_end":null,"cost":12027500.00},"geometry":{"type":"LineString","coordinates":[[37.63365104487929,55.69870838314795],[37.633619703712576,55.699606666163845]]}},{"type":"Feature","properties":{"id":"hnr-86","object_type":"heat_network","variant_id":"variant-2","start_node_id":"hnr-65","end_node_id":"hnr-66","flow_tph":38.10,"diameter":125,"length":95.71067811865476,"laying_method":"base","depth_start":null,"depth_end":null,"cost":9310256.21},"geometry":{"type":"LineString","coordinates":[[37.633619703712576,55.699606666163845],[37.63280871385843,55.700046954873606],[37.63241105472172,55.7000425265705]]}},{"type":"Feature","properties":{"id":"hnr-87","object_type":"heat_network","variant_id":"variant-2","start_node_id":"hnr-66","end_node_id":8,"flow_tph":18.03,"diameter":100,"length":36.34830609970543,"laying_method":"base","depth_start":null,"depth_end":null,"cost":3262187.78},"geometry":{"type":"LineString","coordinates":[[37.63241105472172,55.7000425265705],[37.632333088955505,55.700286301792566],[37.632202633606305,55.70031441743034]]}},{"type":"Feature","properties":{"id":"hnr-88","object_type":"heat_network","variant_id":"variant-2","start_node_id":"hnr-66","end_node_id":6,"flow_tph":15.99,"diameter":100,"length":31.929292340677108,"laying_method":"base","depth_start":null,"depth_end":null,"cost":2865590.13},"geometry":{"type":"LineString","coordinates":[[37.63241105472172,55.7000425265705],[37.63205963698672,55.700117880411796],[37.632012226474316,55.70004826125506]]}},{"type":"Feature","properties":{"id":"hnr-89","object_type":"heat_network","variant_id":"variant-2","start_node_id":"hnr-66","end_node_id":11,"flow_tph":4.08,"diameter":65,"length":87.67910632921107,"laying_method":"base","depth_start":null,"depth_end":null,"cost":6894295.81},"geometry":{"type":"LineString","coordinates":[[37.63241105472172,55.7000425265705],[37.6324188972372,55.6998179559592],[37.63281655409525,55.69982238422524],[37.63303485709262,55.699631166571415],[37.6332044989075,55.699575075115]]}},{"type":"Feature","properties":{"id":"hnr-90","object_type":"heat_network","variant_id":"variant-2","start_node_id":"hnr-64","end_node_id":12,"flow_tph":40.0,"diameter":125,"length":34.548045444787135,"laying_method":"base","depth_start":null,"depth_end":null,"cost":3360661.12},"geometry":{"type":"LineString","coordinates":[[37.63365104487929,55.69870838314795],[37.63324343577562,55.698624470095936],[37.63313932211122,55.69865306825248]]}},{"type":"Feature","properties":{"id":"hnr-91","object_type":"heat_network","variant_id":"variant-2","start_node_id":"hnr-64","end_node_id":15,"flow_tph":31.89,"diameter":125,"length":520.0950936854721,"laying_method":"base","depth_start":null,"depth_end":null,"cost":50592250.24},"geometry":{"type":"LineString","coordinates":[[37.63365104487929,55.69870838314795],[37.63325339919241,55.6987039576418],[37.63284791393386,55.69892410154172],[37.632450266190155,55.698919673423944],[37.6320447742069,55.6991398146291],[37.63164712440648,55.69913538389964],[37.63125732362451,55.69890638134681],[37.63127302110656,55.698457240247706],[37.63088322921655,55.69822823652901],[37.630485588863,55.69822380208611],[37.63051700027825,55.697325520040735],[37.63132795879794,55.696885246117255],[37.63191661303502,55.69686990300721],[37.63203443949898,55.69704568983144]]}},{"type":"Feature","properties":{"id":"hnr-92","object_type":"heat_network","variant_id":"variant-2","start_node_id":"hnr-65","end_node_id":"hnr-67","flow_tph":43.63,"diameter":150,"length":58.084353368301485,"laying_method":"base","depth_start":null,"depth_end":null,"cost":6128305.87},"geometry":{"type":"LineString","coordinates":[[37.633619703712576,55.699606666163845],[37.63401735862448,55.69961109053086],[37.63449779798155,55.69973250439764]]}},{"type":"Feature","properties":{"id":"hnr-93","object_type":"heat_network","variant_id":"variant-2","start_node_id":"hnr-67","end_node_id":2,"flow_tph":18.76,"diameter":100,"length":14.590865987344527,"laying_method":"base","depth_start":null,"depth_end":null,"cost":1309501.04},"geometry":{"type":"LineString","coordinates":[[37.63449779798155,55.69973250439764],[37.6345829261805,55.6998544638392]]}},{"type":"Feature","properties":{"id":"hnr-94","object_type":"heat_network","variant_id":"variant-2","start_node_id":"hnr-67","end_node_id":1,"flow_tph":24.87,"diameter":125,"length":33.287953585686815,"laying_method":"base","depth_start":null,"depth_end":null,"cost":3238085.69},"geometry":{"type":"LineString","coordinates":[[37.63449779798155,55.69973250439764],[37.634591449059336,55.699615069506706],[37.6344054041544,55.69948106445311]]}},{"type":"Feature","properties":{"id":"hnr-95","object_type":"heat_network","variant_id":"variant-2","start_node_id":"hnr-63","end_node_id":"hnr-68","flow_tph":74.03,"diameter":200,"length":120.71067811865476,"laying_method":"base","depth_start":null,"depth_end":null,"cost":14518476.81},"geometry":{"type":"LineString","coordinates":[[37.634851810783765,55.69849708105518],[37.63446199739012,55.69826808858837],[37.63447765775198,55.69781894684232],[37.6340878532505,55.697589953209324]]}},{"type":"Feature","properties":{"id":"hnr-96","object_type":"heat_network","variant_id":"variant-2","start_node_id":"hnr-68","end_node_id":13,"flow_tph":19.77,"diameter":100,"length":25.446279898641542,"laying_method":"base","depth_start":null,"depth_end":null,"cost":2283752.73},"geometry":{"type":"LineString","coordinates":[[37.6340878532505,55.697589953209324],[37.63384889424688,55.69764524662505],[37.6339010562985,55.697722607233096]]}},{"type":"Feature","properties":{"id":"hnr-97","object_type":"heat_network","variant_id":"variant-2","start_node_id":"hnr-68","end_node_id":14,"flow_tph":19.73,"diameter":100,"length":29.89571992635988,"laying_method":"base","depth_start":null,"depth_end":null,"cost":2683081.07},"geometry":{"type":"LineString","coordinates":[[37.6340878532505,55.697589953209324],[37.6339015593965,55.697444156292725],[37.6337524411436,55.6974723292097]]}},{"type":"Feature","properties":{"id":"hnr-98","object_type":"heat_network","variant_id":"variant-2","start_node_id":"hnr-62","end_node_id":5,"flow_tph":26.09,"diameter":125,"length":39.559208157453384,"laying_method":"base","depth_start":null,"depth_end":null,"cost":3848121.97},"geometry":{"type":"LineString","coordinates":[[37.63525728042522,55.698276930441665],[37.63524894324781,55.69836589039511],[37.6354170560464,55.6986147317495]]}},{"type":"Feature","properties":{"id":"hnr-99","object_type":"heat_network","variant_id":"variant-2","start_node_id":"hnr-68","end_node_id":9,"flow_tph":34.53,"diameter":125,"length":50.33465161749716,"laying_method":"base","depth_start":null,"depth_end":null,"cost":4896303.24},"geometry":{"type":"LineString","coordinates":[[37.6340878532505,55.697589953209324],[37.63449331767097,55.69736980506029],[37.63452018779089,55.69736246726497],[37.6344462678961,55.6972523917077]]}},{"type":"Feature","properties":{"id":"hnr-100","object_type":"heat_network","variant_id":"variant-2","start_node_id":106,"end_node_id":"hnr-69","flow_tph":96.90,"diameter":200,"length":147.1477557654527,"laying_method":"base","depth_start":null,"depth_end":null,"cost":17698196.32},"geometry":{"type":"LineString","coordinates":[[37.638461839014155,55.69763853262273],[37.63848526004541,55.69696481880041],[37.638890693454286,55.696744655947604],[37.639475489429906,55.696758353653834]]}},{"type":"Feature","properties":{"id":"hnr-101","object_type":"heat_network","variant_id":"variant-2","start_node_id":"hnr-69","end_node_id":17,"flow_tph":20.63,"diameter":100,"length":11.124510727354789,"laying_method":"base","depth_start":null,"depth_end":null,"cost":998402.59},"geometry":{"type":"LineString","coordinates":[[37.639475489429906,55.696758353653834],[37.639538146115,55.6968518286392]]}},{"type":"Feature","properties":{"id":"hnr-102","object_type":"heat_network","variant_id":"variant-2","start_node_id":"hnr-69","end_node_id":16,"flow_tph":76.27,"diameter":200,"length":281.01014017642007,"laying_method":"base","depth_start":null,"depth_end":null,"cost":33798494.61},"geometry":{"type":"LineString","coordinates":[[37.639475489429906,55.696758353653834],[37.63988091516929,55.69653818748434],[37.64027074347034,55.69676716288534],[37.64024735332062,55.6974408772285],[37.64063719268238,55.69766985149059],[37.64062939791345,55.697894422948174],[37.64101924400016,55.69812339601558],[37.640937735884556,55.69837011113261],[37.64076446632709,55.6984073918225]]}},{"type":"Feature","properties":{"id":"hnr-103","object_type":"heat_network","variant_id":"variant-2","start_node_id":"hnr-70","end_node_id":"hnr-74","flow_tph":27.82,"diameter":125,"length":82.68539944831005,"laying_method":"base","depth_start":null,"depth_end":null,"cost":8043222.23},"geometry":{"type":"LineString","coordinates":[[37.63862465184457,55.69788569118358],[37.63902229011282,55.6978900992561],[37.639030094094075,55.69766552794801],[37.638632458104205,55.69766111991238],[37.63854027679945,55.69770648052425]]}},{"type":"Feature","properties":{"id":"hnr-104","object_type":"heat_network","variant_id":"variant-2","start_node_id":"hnr-74","end_node_id":"hnr-75","flow_tph":27.82,"diameter":125,"length":3.999999999883717,"laying_method":"special","depth_start":null,"depth_end":null,"cost":408555.00},"geometry":{"type":"LineString","coordinates":[[37.63854027679945,55.69770648052425],[37.63849229934949,55.69773008921678]]}},{"type":"Feature","properties":{"id":"hnr-105","object_type":"heat_network","variant_id":"variant-2","start_node_id":"hnr-75","end_node_id":7,"flow_tph":27.82,"diameter":125,"length":33.78501040258592,"laying_method":"base","depth_start":null,"depth_end":null,"cost":3286436.89},"geometry":{"type":"LineString","coordinates":[[37.63849229934949,55.69773008921678],[37.63821833089452,55.69786490241139],[37.6382803042186,55.69795678628921]]}},{"type":"Feature","properties":{"id":"hnr-106","object_type":"heat_network","variant_id":"variant-2","start_node_id":"hnr-71","end_node_id":"hnr-76","flow_tph":29.42,"diameter":150,"length":38.27413656382123,"laying_method":"base","depth_start":null,"depth_end":null,"cost":4038189.33},"geometry":{"type":"LineString","coordinates":[[37.64056464364219,55.69981510091008],[37.63995584292349,55.699808359273085]]}},{"type":"Feature","properties":{"id":"hnr-107","object_type":"heat_network","variant_id":"variant-2","start_node_id":"hnr-76","end_node_id":"hnr-77","flow_tph":29.42,"diameter":150,"length":4.0,"laying_method":"special","depth_start":null,"depth_end":null,"cost":443129.40},"geometry":{"type":"LineString","coordinates":[[37.63995584292349,55.699808359273085],[37.63989221765268,55.69980765453574]]}},{"type":"Feature","properties":{"id":"hnr-108","object_type":"heat_network","variant_id":"variant-2","start_node_id":"hnr-77","end_node_id":3,"flow_tph":29.42,"diameter":150,"length":606.3748485531647,"laying_method":"base","depth_start":null,"depth_end":null,"cost":63976791.15},"geometry":{"type":"LineString","coordinates":[[37.63989221765268,55.69980765453574],[37.63857635441988,55.69979307214557],[37.638170887423435,55.700013233681204],[37.63777322774178,55.700008822742],[37.63736775401969,55.70022898158317],[37.63697009228029,55.70022456803231],[37.63656461183253,55.700444724178936],[37.63616694803549,55.70044030801639],[37.63576146086206,55.700660461468374],[37.634568463630345,55.70064720128342],[37.63458412416619,55.70019805969262],[37.63419429558172,55.69996906635836],[37.634202127851495,55.69974449557748],[37.633406815368495,55.69973564673879],[37.63300004730552,55.69997090402153],[37.6328466024688,55.700275760196696]]}},{"type":"Feature","properties":{"id":"hnr-109","object_type":"heat_network","variant_id":"variant-2","start_node_id":"hnr-72","end_node_id":4,"flow_tph":47.7,"diameter":150,"length":259.36245832007177,"laying_method":"base","depth_start":null,"depth_end":null,"cost":27364554.89},"geometry":{"type":"LineString","coordinates":[[37.639774075349905,55.69957509248492],[37.63976627507634,55.699799663792014],[37.63857330207732,55.69978644264265],[37.63816783513312,55.700006604168706],[37.637770175519286,55.70000219321996],[37.63736470184944,55.70022235205155],[37.63696704017785,55.700217938491164],[37.63656027389118,55.700215734419366],[37.6363818514204,55.700155199014695]]}},{"type":"Feature","properties":{"id":"hnr-110","object_type":"heat_network","variant_id":"variant-2","start_node_id":"hnr-73","end_node_id":"hnr-78","flow_tph":33.14,"diameter":125,"length":48.04818803443628,"laying_method":"base","depth_start":null,"depth_end":null,"cost":4673887.49},"geometry":{"type":"LineString","coordinates":[[37.63792755239827,55.69689831413853],[37.6379197423204,55.69712288537206],[37.63817386755887,55.69727215887599]]}},{"type":"Feature","properties":{"id":"hnr-111","object_type":"heat_network","variant_id":"variant-2","start_node_id":"hnr-78","end_node_id":"hnr-79","flow_tph":33.14,"diameter":125,"length":3.9999999999903855,"laying_method":"special","depth_start":null,"depth_end":null,"cost":408555.00},"geometry":{"type":"LineString","coordinates":[[37.63817386755887,55.69727215887599],[37.6382179710475,55.69729806515528]]}},{"type":"Feature","properties":{"id":"hnr-112","object_type":"heat_network","variant_id":"variant-2","start_node_id":"hnr-79","end_node_id":"hnr-80","flow_tph":33.14,"diameter":125,"length":14.331621642895373,"laying_method":"base","depth_start":null,"depth_end":null,"cost":1394108.50},"geometry":{"type":"LineString","coordinates":[[37.6382179710475,55.69729806515528],[37.63830956481904,55.69735186694893],[37.63830768326156,55.69740598386624]]}},{"type":"Feature","properties":{"id":"hnr-113","object_type":"heat_network","variant_id":"variant-2","start_node_id":"hnr-80","end_node_id":"hnr-81","flow_tph":33.14,"diameter":125,"length":4.0,"laying_method":"special","depth_start":null,"depth_end":null,"cost":408555.00},"geometry":{"type":"LineString","coordinates":[[37.63830768326156,55.69740598386624],[37.63830643398145,55.69744191526689]]}},{"type":"Feature","properties":{"id":"hnr-114","object_type":"heat_network","variant_id":"variant-2","start_node_id":"hnr-81","end_node_id":10,"flow_tph":33.14,"diameter":125,"length":290.0812341342367,"laying_method":"base","depth_start":null,"depth_end":null,"cost":28217652.05},"geometry":{"type":"LineString","coordinates":[[37.63830643398145,55.69744191526689],[37.63830175679863,55.697576438201395],[37.637896311424186,55.697796599018744],[37.63710103726826,55.69778777430473],[37.63671121760029,55.69755878892109],[37.63673466866987,55.69688507557987],[37.63633704098142,55.69688066015259],[37.63599282167331,55.69715525745456],[37.6360932402107,55.697296569490895]]}},{"type":"Feature","properties":{"id":"hnr-62","object_type":"heat_chamber","variant_id":"variant-2","diameter":250,"cost":5000000.00},"geometry":{"type":"Point","coordinates":[37.63525728042522,55.698276930441665]}},{"type":"Feature","properties":{"id":"hnr-63","object_type":"heat_chamber","variant_id":"variant-2","diameter":250,"cost":5000000.00},"geometry":{"type":"Point","coordinates":[37.634851810783765,55.69849708105518]}},{"type":"Feature","properties":{"id":"hnr-64","object_type":"heat_chamber","variant_id":"variant-2","diameter":250,"cost":5000000.00},"geometry":{"type":"Point","coordinates":[37.63365104487929,55.69870838314795]}},{"type":"Feature","properties":{"id":"hnr-65","object_type":"heat_chamber","variant_id":"variant-2","diameter":200,"cost":3000000.00},"geometry":{"type":"Point","coordinates":[37.633619703712576,55.699606666163845]}},{"type":"Feature","properties":{"id":"hnr-66","object_type":"heat_chamber","variant_id":"variant-2","diameter":125,"cost":3000000.00},"geometry":{"type":"Point","coordinates":[37.63241105472172,55.7000425265705]}},{"type":"Feature","properties":{"id":"hnr-67","object_type":"heat_chamber","variant_id":"variant-2","diameter":150,"cost":3000000.00},"geometry":{"type":"Point","coordinates":[37.63449779798155,55.69973250439764]}},{"type":"Feature","properties":{"id":"hnr-68","object_type":"heat_chamber","variant_id":"variant-2","diameter":200,"cost":3000000.00},"geometry":{"type":"Point","coordinates":[37.6340878532505,55.697589953209324]}},{"type":"Feature","properties":{"id":"hnr-69","object_type":"heat_chamber","variant_id":"variant-2","diameter":200,"cost":3000000.00},"geometry":{"type":"Point","coordinates":[37.639475489429906,55.696758353653834]}},{"type":"Feature","properties":{"id":"hnr-70","object_type":"heat_chamber","variant_id":"variant-2","diameter":400,"cost":5000000.00},"geometry":{"type":"Point","coordinates":[37.63862465184457,55.69788569118358]}},{"type":"Feature","properties":{"id":"hnr-71","object_type":"heat_chamber","variant_id":"variant-2","diameter":400,"cost":5000000.00},"geometry":{"type":"Point","coordinates":[37.64056464364219,55.69981510091008]}},{"type":"Feature","properties":{"id":"hnr-72","object_type":"heat_chamber","variant_id":"variant-2","diameter":400,"cost":5000000.00},"geometry":{"type":"Point","coordinates":[37.639774075349905,55.69957509248492]}},{"type":"Feature","properties":{"id":"hnr-73","object_type":"heat_chamber","variant_id":"variant-2","diameter":400,"cost":5000000.00},"geometry":{"type":"Point","coordinates":[37.63792755239827,55.69689831413853]}},{"type":"Feature","properties":{"id":"hnr-74","object_type":"technical_node","variant_id":"variant-2"},"geometry":{"type":"Point","coordinates":[37.63854027679945,55.69770648052425]}},{"type":"Feature","properties":{"id":"hnr-75","object_type":"technical_node","variant_id":"variant-2"},"geometry":{"type":"Point","coordinates":[37.63849229934949,55.69773008921678]}},{"type":"Feature","properties":{"id":"hnr-76","object_type":"technical_node","variant_id":"variant-2"},"geometry":{"type":"Point","coordinates":[37.63995584292349,55.699808359273085]}},{"type":"Feature","properties":{"id":"hnr-77","object_type":"technical_node","variant_id":"variant-2"},"geometry":{"type":"Point","coordinates":[37.63989221765268,55.69980765453574]}},{"type":"Feature","properties":{"id":"hnr-78","object_type":"technical_node","variant_id":"variant-2"},"geometry":{"type":"Point","coordinates":[37.63817386755887,55.69727215887599]}},{"type":"Feature","properties":{"id":"hnr-79","object_type":"technical_node","variant_id":"variant-2"},"geometry":{"type":"Point","coordinates":[37.6382179710475,55.69729806515528]}},{"type":"Feature","properties":{"id":"hnr-80","object_type":"technical_node","variant_id":"variant-2"},"geometry":{"type":"Point","coordinates":[37.63830768326156,55.69740598386624]}},{"type":"Feature","properties":{"id":"hnr-81","object_type":"technical_node","variant_id":"variant-2"},"geometry":{"type":"Point","coordinates":[37.63830643398145,55.69744191526689]}},{"type":"Feature","properties":{"id":"hnr-115","object_type":"variant_summary","variant_id":"variant-2","rank":2,"construction_cost":429980577.90,"chamber_construction_cost":50000000.00,"existing_chamber_tie_in_count":2,"existing_chamber_tie_in_cost":10000000.00,"unconnected_penalty":0.00,"calculated_cost":429980577.90,"new_network_length":3458.222231743707,"score":22.4141228764,"unconnected_oks_ids":[]},"geometry":null},{"type":"Feature","properties":{"id":"hnr-132","object_type":"heat_network","variant_id":"variant-3","start_node_id":106,"end_node_id":"hnr-116","flow_tph":173.20,"diameter":250,"length":29.48055472669102,"laying_method":"base","depth_start":null,"depth_end":null,"cost":3989397.11},"geometry":{"type":"LineString","coordinates":[[37.638461839014155,55.69763853262273],[37.63821833089452,55.69786490241139]]}},{"type":"Feature","properties":{"id":"hnr-133","object_type":"heat_network","variant_id":"variant-3","start_node_id":"hnr-116","end_node_id":7,"flow_tph":27.82,"diameter":125,"length":10.943667369263446,"laying_method":"base","depth_start":null,"depth_end":null,"cost":1064545.24},"geometry":{"type":"LineString","coordinates":[[37.63821833089452,55.69786490241139],[37.6382803042186,55.69795678628921]]}},{"type":"Feature","properties":{"id":"hnr-134","object_type":"heat_network","variant_id":"variant-3","start_node_id":107,"end_node_id":16,"flow_tph":76.27,"diameter":200,"length":328.8386437536233,"laying_method":"base","depth_start":null,"depth_end":null,"cost":39551067.88},"geometry":{"type":"LineString","coordinates":[[37.639557136852176,55.698651589901964],[37.63994698408015,55.698880566352635],[37.639939185000735,55.699105137701395],[37.64071889746468,55.699563086990736],[37.64152978911998,55.69912274549485],[37.64155315868499,55.69844903097941],[37.64099720160205,55.69835731641177],[37.64076446632709,55.6984073918225]]}},{"type":"Feature","properties":{"id":"hnr-135","object_type":"heat_network","variant_id":"variant-3","start_node_id":106,"end_node_id":17,"flow_tph":20.63,"diameter":100,"length":158.2722664928075,"laying_method":"base","depth_start":null,"depth_end":null,"cost":14204619.37},"geometry":{"type":"LineString","coordinates":[[37.638461839014155,55.69763853262273],[37.63848526004541,55.69696481880041],[37.638890693454286,55.696744655947604],[37.639475489429906,55.696758353653834],[37.639538146115,55.6968518286392]]}},{"type":"Feature","properties":{"id":"hnr-136","object_type":"heat_network","variant_id":"variant-3","start_node_id":"hnr-116","end_node_id":"hnr-117","flow_tph":145.38,"diameter":200,"length":181.06601717798213,"laying_method":"base","depth_start":null,"depth_end":null,"cost":21777715.22},"geometry":{"type":"LineString","coordinates":[[37.63821833089452,55.69786490241139],[37.63742305524546,55.697856079775576],[37.63664341532077,55.697398109809086],[37.636651232796176,55.69717353870475],[37.63626142183655,55.696944551915976]]}},{"type":"Feature","properties":{"id":"hnr-137","object_type":"heat_network","variant_id":"variant-3","start_node_id":"hnr-117","end_node_id":10,"flow_tph":33.14,"diameter":125,"length":49.4503506497995,"laying_method":"base","depth_start":null,"depth_end":null,"cost":4810282.86},"geometry":{"type":"LineString","coordinates":[[37.63626142183655,55.696944551915976],[37.63595430805004,55.697101059616664],[37.6360932402107,55.697296569490895]]}},{"type":"Feature","properties":{"id":"hnr-138","object_type":"heat_network","variant_id":"variant-3","start_node_id":"hnr-117","end_node_id":"hnr-118","flow_tph":112.24,"diameter":200,"length":276.7766952966369,"laying_method":"base","depth_start":null,"depth_end":null,"cost":33289317.03},"geometry":{"type":"LineString","coordinates":[[37.63626142183655,55.696944551915976],[37.63626924136913,55.696719980830615],[37.635879437133646,55.69649099284755],[37.63588725872326,55.696266421781154],[37.63549746121169,55.696037432603845],[37.635092016296426,55.69625758421618],[37.63469439524898,55.69625316350292],[37.634288943609945,55.69647331242093],[37.63389132050574,55.69646888909632],[37.63348586214291,55.69668903531988]]}},{"type":"Feature","properties":{"id":"hnr-139","object_type":"heat_network","variant_id":"variant-3","start_node_id":"hnr-118","end_node_id":"hnr-119","flow_tph":80.35,"diameter":200,"length":85.35533905932738,"laying_method":"base","depth_start":null,"depth_end":null,"cost":10266113.41},"geometry":{"type":"LineString","coordinates":[[37.63348586214291,55.69668903531988],[37.633875654212595,55.69691803083208],[37.63385998747641,55.697367172531855]]}},{"type":"Feature","properties":{"id":"hnr-140","object_type":"heat_network","variant_id":"variant-3","start_node_id":"hnr-119","end_node_id":"hnr-120","flow_tph":60.62,"diameter":150,"length":35.35533905932738,"laying_method":"base","depth_start":null,"depth_end":null,"cost":3730235.76},"geometry":{"type":"LineString","coordinates":[[37.63385998747641,55.697367172531855],[37.63424978843766,55.697596166877965]]}},{"type":"Feature","properties":{"id":"hnr-141","object_type":"heat_network","variant_id":"variant-3","start_node_id":"hnr-120","end_node_id":9,"flow_tph":34.53,"diameter":125,"length":48.883937767461305,"laying_method":"base","depth_start":null,"depth_end":null,"cost":4755185.05},"geometry":{"type":"LineString","coordinates":[[37.63424978843766,55.697596166877965],[37.63457096041564,55.69743807339053],[37.6344462678961,55.6972523917077]]}},{"type":"Feature","properties":{"id":"hnr-142","object_type":"heat_network","variant_id":"variant-3","start_node_id":"hnr-120","end_node_id":5,"flow_tph":26.09,"diameter":125,"length":156.63323989714362,"laying_method":"base","depth_start":null,"depth_end":null,"cost":15236498.41},"geometry":{"type":"LineString","coordinates":[[37.63424978843766,55.697596166877965],[37.63424195707101,55.69782073774238],[37.63463176475658,55.69804973089432],[37.634623935446875,55.69827430177776],[37.635013749857,55.69850329373547],[37.6353255023981,55.6984792140256],[37.6354170560464,55.6986147317495]]}},{"type":"Feature","properties":{"id":"hnr-143","object_type":"heat_network","variant_id":"variant-3","start_node_id":"hnr-119","end_node_id":14,"flow_tph":19.73,"diameter":100,"length":18.842194846403714,"laying_method":"base","depth_start":null,"depth_end":null,"cost":1691049.30},"geometry":{"type":"LineString","coordinates":[[37.63385998747641,55.697367172531855],[37.6339015593965,55.697444156292725],[37.6337524411436,55.6974723292097]]}},{"type":"Feature","properties":{"id":"hnr-144","object_type":"heat_network","variant_id":"variant-3","start_node_id":108,"end_node_id":"hnr-121","flow_tph":170.92,"diameter":250,"length":1038.9087296526013,"laying_method":"base","depth_start":null,"depth_end":null,"cost":140588246.02},"geometry":{"type":"LineString","coordinates":[[37.64002953630141,55.69994496673263],[37.638438899782216,55.69992733933832],[37.63681699578028,55.700807975380464],[37.63641932825342,55.700803560016276],[37.6360138386908,55.7010237142768],[37.63562399353146,55.70079472542574],[37.63363565866341,55.70077261642013],[37.63323015392406,55.700992761409864],[37.63044647458846,55.70096174546061],[37.63005666288434,55.7007327391049],[37.63009594285993,55.69960988718855],[37.63050145060346,55.69938975251781],[37.63089910279618,55.69939418697005],[37.63130460381498,55.69917404960434],[37.63170225395113,55.69917848144483],[37.63210774824525,55.69895834138423],[37.63290304451508,55.69896719855458]]}},{"type":"Feature","properties":{"id":"hnr-145","object_type":"heat_network","variant_id":"variant-3","start_node_id":"hnr-121","end_node_id":"hnr-122","flow_tph":130.92,"diameter":200,"length":35.35533905932738,"laying_method":"base","depth_start":null,"depth_end":null,"cost":4252363.41},"geometry":{"type":"LineString","coordinates":[[37.63290304451508,55.69896719855458],[37.63330852991685,55.698747054474794]]}},{"type":"Feature","properties":{"id":"hnr-146","object_type":"heat_network","variant_id":"variant-3","start_node_id":"hnr-122","end_node_id":13,"flow_tph":19.77,"diameter":100,"length":186.51518515474413,"laying_method":"base","depth_start":null,"depth_end":null,"cost":16739364.84},"geometry":{"type":"LineString","coordinates":[[37.63330852991685,55.698747054474794],[37.633324203785534,55.6982979129798],[37.6329344013663,55.698068915712774],[37.632942240301986,55.69784434497982],[37.633347713757445,55.69762420066979],[37.63384889424688,55.69764524662505],[37.6339010562985,55.697722607233096]]}},{"type":"Feature","properties":{"id":"hnr-147","object_type":"heat_network","variant_id":"variant-3","start_node_id":"hnr-122","end_node_id":"hnr-123","flow_tph":111.15,"diameter":200,"length":85.35533905932738,"laying_method":"base","depth_start":null,"depth_end":null,"cost":10266113.41},"geometry":{"type":"LineString","coordinates":[[37.63330852991685,55.698747054474794],[37.633698341228325,55.69897605057574],[37.63368267125187,55.699425192090835]]}},{"type":"Feature","properties":{"id":"hnr-148","object_type":"heat_network","variant_id":"variant-3","start_node_id":"hnr-123","end_node_id":"hnr-124","flow_tph":43.63,"diameter":150,"length":60.35533905932738,"laying_method":"base","depth_start":null,"depth_end":null,"cost":6367910.76},"geometry":{"type":"LineString","coordinates":[[37.63368267125187,55.699425192090835],[37.634072491456024,55.699654187025615],[37.63447014692535,55.699658609929]]}},{"type":"Feature","properties":{"id":"hnr-149","object_type":"heat_network","variant_id":"variant-3","start_node_id":"hnr-124","end_node_id":1,"flow_tph":24.87,"diameter":125,"length":24.300257604678116,"laying_method":"base","depth_start":null,"depth_end":null,"cost":2363807.56},"geometry":{"type":"LineString","coordinates":[[37.63447014692535,55.699658609929],[37.634549730097206,55.69958502013528],[37.6344054041544,55.69948106445311]]}},{"type":"Feature","properties":{"id":"hnr-150","object_type":"heat_network","variant_id":"variant-3","start_node_id":"hnr-124","end_node_id":2,"flow_tph":18.76,"diameter":100,"length":22.997097336468947,"laying_method":"base","depth_start":null,"depth_end":null,"cost":2063943.49},"geometry":{"type":"LineString","coordinates":[[37.63447014692535,55.699658609929],[37.63449779798155,55.69973250439764],[37.6345829261805,55.6998544638392]]}},{"type":"Feature","properties":{"id":"hnr-151","object_type":"heat_network","variant_id":"variant-3","start_node_id":"hnr-118","end_node_id":15,"flow_tph":31.89,"diameter":125,"length":122.54275498891718,"laying_method":"base","depth_start":null,"depth_end":null,"cost":11920346.49},"geometry":{"type":"LineString","coordinates":[[37.63348586214291,55.69668903531988],[37.63229298699289,55.6966757536503],[37.63197715830899,55.69696023149296],[37.63203443949898,55.69704568983144]]}},{"type":"Feature","properties":{"id":"hnr-152","object_type":"heat_network","variant_id":"variant-3","start_node_id":"hnr-121","end_node_id":12,"flow_tph":40.0,"diameter":125,"length":39.12682080458475,"laying_method":"base","depth_start":null,"depth_end":null,"cost":3806061.49},"geometry":{"type":"LineString","coordinates":[[37.63290304451508,55.69896719855458],[37.632979690458434,55.69875998776531],[37.63313932211122,55.69865306825248]]}},{"type":"Feature","properties":{"id":"hnr-153","object_type":"heat_network","variant_id":"variant-3","start_node_id":"hnr-123","end_node_id":"hnr-125","flow_tph":67.52,"diameter":200,"length":85.35533905932738,"laying_method":"base","depth_start":null,"depth_end":null,"cost":10266113.41},"geometry":{"type":"LineString","coordinates":[[37.63368267125187,55.699425192090835],[37.63367483609745,55.69964976283489],[37.63326934330581,55.69986990805482],[37.63287168589023,55.69986548125238]]}},{"type":"Feature","properties":{"id":"hnr-154","object_type":"heat_network","variant_id":"variant-3","start_node_id":"hnr-125","end_node_id":11,"flow_tph":4.08,"diameter":65,"length":44.89133972999163,"laying_method":"base","depth_start":null,"depth_end":null,"cost":3529850.93},"geometry":{"type":"LineString","coordinates":[[37.63287168589023,55.69986548125238],[37.63285637676293,55.69969018002213],[37.6332044989075,55.699575075115]]}},{"type":"Feature","properties":{"id":"hnr-155","object_type":"heat_network","variant_id":"variant-3","start_node_id":"hnr-125","end_node_id":"hnr-126","flow_tph":63.44,"diameter":150,"length":25.0,"laying_method":"base","depth_start":null,"depth_end":null,"cost":2637675.00},"geometry":{"type":"LineString","coordinates":[[37.63287168589023,55.69986548125238],[37.63286384595686,55.70009005190433]]}},{"type":"Feature","properties":{"id":"hnr-156","object_type":"heat_network","variant_id":"variant-3","start_node_id":"hnr-126","end_node_id":3,"flow_tph":29.42,"diameter":125,"length":24.40175005112553,"laying_method":"base","depth_start":null,"depth_end":null,"cost":2373680.24},"geometry":{"type":"LineString","coordinates":[[37.63286384595686,55.70009005190433],[37.63293262364836,55.700104858437015],[37.6328466024688,55.700275760196696]]}},{"type":"Feature","properties":{"id":"hnr-157","object_type":"heat_network","variant_id":"variant-3","start_node_id":"hnr-126","end_node_id":"hnr-127","flow_tph":34.02,"diameter":125,"length":25.0,"laying_method":"base","depth_start":null,"depth_end":null,"cost":2431875.00},"geometry":{"type":"LineString","coordinates":[[37.63286384595686,55.70009005190433],[37.63246618637346,55.70008562377748]]}},{"type":"Feature","properties":{"id":"hnr-158","object_type":"heat_network","variant_id":"variant-3","start_node_id":"hnr-127","end_node_id":6,"flow_tph":15.99,"diameter":100,"length":34.10690402175698,"laying_method":"base","depth_start":null,"depth_end":null,"cost":3061026.42},"geometry":{"type":"LineString","coordinates":[[37.63246618637346,55.70008562377748],[37.63205963698672,55.700117880411796],[37.632012226474316,55.70004826125506]]}},{"type":"Feature","properties":{"id":"hnr-159","object_type":"heat_network","variant_id":"variant-3","start_node_id":"hnr-127","end_node_id":8,"flow_tph":18.03,"diameter":100,"length":32.62781938560569,"laying_method":"base","depth_start":null,"depth_end":null,"cost":2928281.53},"geometry":{"type":"LineString","coordinates":[[37.63246618637346,55.70008562377748],[37.632333088955505,55.700286301792566],[37.632202633606305,55.70031441743034]]}},{"type":"Feature","properties":{"id":"hnr-160","object_type":"heat_network","variant_id":"variant-3","start_node_id":110,"end_node_id":"hnr-128","flow_tph":47.7,"diameter":150,"length":188.19540189523366,"laying_method":"base","depth_start":null,"depth_end":null,"cost":19855932.27},"geometry":{"type":"LineString","coordinates":[[37.639132446457374,55.69802165934685],[37.63910903563085,55.69869537323342],[37.63949888064752,55.69892435109388],[37.639491078986204,55.6991489223993],[37.63988093072825,55.69937789906511],[37.63987547578345,55.69953496176901]]}},{"type":"Feature","properties":{"id":"hnr-161","object_type":"heat_network","variant_id":"variant-3","start_node_id":"hnr-128","end_node_id":"hnr-129","flow_tph":47.7,"diameter":150,"length":4.0,"laying_method":"special","depth_start":null,"depth_end":null,"cost":443129.40},"geometry":{"type":"LineString","coordinates":[[37.63987547578345,55.69953496176901],[37.63987422784199,55.69957089318051]]}},{"type":"Feature","properties":{"id":"hnr-162","object_type":"heat_network","variant_id":"variant-3","start_node_id":"hnr-129","end_node_id":"hnr-130","flow_tph":47.7,"diameter":150,"length":6.715720864754429,"laying_method":"base","depth_start":null,"depth_end":null,"cost":708555.56},"geometry":{"type":"LineString","coordinates":[[37.63987422784199,55.69957089318051],[37.63987313112492,55.699602470389436],[37.639836428363864,55.699622400354706]]}},{"type":"Feature","properties":{"id":"hnr-163","object_type":"heat_network","variant_id":"variant-3","start_node_id":"hnr-130","end_node_id":"hnr-131","flow_tph":47.7,"diameter":150,"length":3.9999999999903855,"laying_method":"special","depth_start":null,"depth_end":null,"cost":443129.40},"geometry":{"type":"LineString","coordinates":[[37.639836428363864,55.699622400354706],[37.63979055623399,55.699647309334416]]}},{"type":"Feature","properties":{"id":"hnr-164","object_type":"heat_network","variant_id":"variant-3","start_node_id":"hnr-131","end_node_id":4,"flow_tph":47.7,"diameter":150,"length":243.9123868412367,"laying_method":"base","depth_start":null,"depth_end":null,"cost":25734464.20},"geometry":{"type":"LineString","coordinates":[[37.63979055623399,55.699647309334416],[37.63946767334032,55.69982263626163],[37.63827469978946,55.69980941220817],[37.63786923094261,55.70002957273749],[37.6374715711449,55.70002516082072],[37.63706609557242,55.700245318655554],[37.63656027389118,55.700215734419366],[37.6363818514204,55.700155199014695]]}},{"type":"Feature","properties":{"id":"hnr-116","object_type":"heat_chamber","variant_id":"variant-3","diameter":250,"cost":5000000.00},"geometry":{"type":"Point","coordinates":[37.63821833089452,55.69786490241139]}},{"type":"Feature","properties":{"id":"hnr-117","object_type":"heat_chamber","variant_id":"variant-3","diameter":200,"cost":3000000.00},"geometry":{"type":"Point","coordinates":[37.63626142183655,55.696944551915976]}},{"type":"Feature","properties":{"id":"hnr-118","object_type":"heat_chamber","variant_id":"variant-3","diameter":200,"cost":3000000.00},"geometry":{"type":"Point","coordinates":[37.63348586214291,55.69668903531988]}},{"type":"Feature","properties":{"id":"hnr-119","object_type":"heat_chamber","variant_id":"variant-3","diameter":200,"cost":3000000.00},"geometry":{"type":"Point","coordinates":[37.63385998747641,55.697367172531855]}},{"type":"Feature","properties":{"id":"hnr-120","object_type":"heat_chamber","variant_id":"variant-3","diameter":150,"cost":3000000.00},"geometry":{"type":"Point","coordinates":[37.63424978843766,55.697596166877965]}},{"type":"Feature","properties":{"id":"hnr-121","object_type":"heat_chamber","variant_id":"variant-3","diameter":250,"cost":5000000.00},"geometry":{"type":"Point","coordinates":[37.63290304451508,55.69896719855458]}},{"type":"Feature","properties":{"id":"hnr-122","object_type":"heat_chamber","variant_id":"variant-3","diameter":200,"cost":3000000.00},"geometry":{"type":"Point","coordinates":[37.63330852991685,55.698747054474794]}},{"type":"Feature","properties":{"id":"hnr-123","object_type":"heat_chamber","variant_id":"variant-3","diameter":200,"cost":3000000.00},"geometry":{"type":"Point","coordinates":[37.63368267125187,55.699425192090835]}},{"type":"Feature","properties":{"id":"hnr-124","object_type":"heat_chamber","variant_id":"variant-3","diameter":150,"cost":3000000.00},"geometry":{"type":"Point","coordinates":[37.63447014692535,55.699658609929]}},{"type":"Feature","properties":{"id":"hnr-125","object_type":"heat_chamber","variant_id":"variant-3","diameter":200,"cost":3000000.00},"geometry":{"type":"Point","coordinates":[37.63287168589023,55.69986548125238]}},{"type":"Feature","properties":{"id":"hnr-126","object_type":"heat_chamber","variant_id":"variant-3","diameter":150,"cost":3000000.00},"geometry":{"type":"Point","coordinates":[37.63286384595686,55.70009005190433]}},{"type":"Feature","properties":{"id":"hnr-127","object_type":"heat_chamber","variant_id":"variant-3","diameter":125,"cost":3000000.00},"geometry":{"type":"Point","coordinates":[37.63246618637346,55.70008562377748]}},{"type":"Feature","properties":{"id":"hnr-128","object_type":"technical_node","variant_id":"variant-3"},"geometry":{"type":"Point","coordinates":[37.63987547578345,55.69953496176901]}},{"type":"Feature","properties":{"id":"hnr-129","object_type":"technical_node","variant_id":"variant-3"},"geometry":{"type":"Point","coordinates":[37.63987422784199,55.69957089318051]}},{"type":"Feature","properties":{"id":"hnr-130","object_type":"technical_node","variant_id":"variant-3"},"geometry":{"type":"Point","coordinates":[37.639836428363864,55.699622400354706]}},{"type":"Feature","properties":{"id":"hnr-131","object_type":"technical_node","variant_id":"variant-3"},"geometry":{"type":"Point","coordinates":[37.63979055623399,55.699647309334416]}},{"type":"Feature","properties":{"id":"hnr-165","object_type":"variant_summary","variant_id":"variant-3","rank":3,"construction_cost":492147897.47,"chamber_construction_cost":40000000.00,"existing_chamber_tie_in_count":5,"existing_chamber_tie_in_cost":25000000.00,"unconnected_penalty":0.00,"calculated_cost":492147897.47,"new_network_length":3713.5617706654666,"score":24.9208264412,"unconnected_oks_ids":[]},"geometry":null}]}